[Satellite]
VERSION=1.1
NAME=LEMUR-2-TRUTNAHD
NICKNAME=LEMUR-2-TRUTNAHD
TLE1=1 42069U 98067LE  18021.12942607  .00028149  00000-0  24950-3 0  9991
TLE2=2 42069  51.6379  15.9060 0006131  36.0964 324.0446 15.68339521 50072
